STARLINK-36340          
1 68188U 26050X   26078.56537335 -.00691967  17220-3 -12834-2 0  9999
2 68188  53.1619 232.5131 0000884 330.3319  29.7662 16.00370058  1932
STARLINK-36305          
1 68189U 26050Y   26078.56515448 -.00680572  16745-3 -12521-2 0  9995
2 68189  53.1619 232.5118 0000664 330.0991  30.0002 16.00507461  1930
STARLINK-37071          
1 68190U 26050Z   26078.56469545 -.00685813  17028-3 -12410-2 0  9998
2 68190  53.1620 232.5085 0000787 120.8561 239.2548 16.00795573  2034
STARLINK-37091          
1 68191U 26050AA  26078.56446108 -.00661998  16019-3 -11877-2 0  9992
2 68191  53.1618 232.5067 0000718 334.0180  26.0815 16.00938134  2033
STARLINK-37098          
1 68192U 26050AB  26078.56422956 -.00678632  16763-3 -12086-2 0  9990
2 68192  53.1618 232.5054 0000647 327.3796  32.7195 16.01069674  2039
STARLINK-37090          
1 68193U 26050AC  26078.56374858 -.00651387  15641-3 -11396-2 0  9993
2 68193  53.1621 232.5012 0000711 333.6069  26.4927 16.01369308  2033
STARLINK-37093          
1 68194U 26050AD  26078.56490579 -.00668674  16258-3 -12185-2 0  9992
2 68194  53.1623 232.5098 0001079 125.0257 235.0876 16.00670231  2030
STARLINK-37058          
1 68195U 26050AE  26078.31433581 -.00749084  20203-3 -12605-2 0  9993
2 68195  53.1616 233.7917 0002524 340.0442  20.0490 16.02049525   431
YAOGAN-50 02            
1 68196U 26051A   26079.00002888  .00000241  00000+0  28234-4 0  9993
2 68196 141.9942 256.6193 0085589 153.1893 207.3280 14.02354822   631
CZ-6A R/B               
1 68197U 26051B   26080.37188536  .00001609  00000+0  22917-3 0  9991
2 68197 142.0316 265.8125 0185780 134.2387 227.3755 14.56362782   865
2026-052A               
1 68198U 26052A   26080.51972517  .00008631  00000+0  53598-3 0  9990
2 68198  97.5374 156.6853 0012396 245.1193 114.8748 15.09859768   819
YUXING-3 06             
1 68199U 26052B   26080.71795912  .00004703  00000+0  29287-3 0  9999
2 68199  97.5376 156.8811 0011567 245.8564 114.1456 15.10007687   845
2026-052C               
1 68200U 26052C   26080.58494299  .00005969  00000+0  36928-3 0  9996
2 68200  97.5376 156.7523 0011263 248.9590 111.0435 15.10141020   813
2026-052D               
1 68201U 26052D   26080.51816418  .00009447  00000+0  57941-3 0  9994
2 68201  97.5376 156.6850 0010415 245.0906 114.9242 15.10304782   817
2026-052E               
1 68202U 26052E   26080.51814990  .00006878  00000+0  42309-3 0  9995
2 68202  97.5375 156.6857 0010350 250.1730 109.8384 15.10303568   815
2026-052F               
1 68203U 26052F   26080.58351116  .00009927  00000+0  60449-3 0  9992
2 68203  97.5368 156.7581 0009576 241.0714 118.9555 15.10561346   824
